[{"OBJECT_NAME":"KUIPER-00013","OBJECT_ID":"2025-088F","EPOCH":"2026-03-09T07:25:00.665472","MEAN_MOTION":14.79909434,"ECCENTRICITY":0.00030982,"INCLINATION":51.8996,"RA_OF_ASC_NODE":109.7774,"ARG_OF_PERICENTER":19.7939,"MEAN_ANOMALY":340.3143,"EPHEMERIS_TYPE":0,"CLASSIFICATION_TYPE":"U","NORAD_CAT_ID":63729,"ELEMENT_SET_NO":999,"REV_AT_EPOCH":4751,"BSTAR":-0.0044577722,"MEAN_MOTION_DOT":-0.00034017,"MEAN_MOTION_DDOT":0},{"OBJECT_NAME":"FENGYUN 1C DEB","OBJECT_ID":"1999-025CEL","EPOCH":"2026-03-09T13:55:44.240160","MEAN_MOTION":14.69547099,"ECCENTRICITY":0.0148084,"INCLINATION":97.9062,"RA_OF_ASC_NODE":104.3983,"ARG_OF_PERICENTER":98.2334,"MEAN_ANOMALY":51.9192,"EPHEMERIS_TYPE":0,"CLASSIFICATION_TYPE":"U","NORAD_CAT_ID":31737,"ELEMENT_SET_NO":999,"REV_AT_EPOCH":99474,"BSTAR":0.00068437,"MEAN_MOTION_DOT":4.757e-5,"MEAN_MOTION_DDOT":0}]
